CAS-2T & KS-1Q          
1 41847U 16066G   20174.21618696  .00000068  00000-0  21110-4 0  9999
2 41847  98.6533 224.7814 0365035 214.5956 143.0989 14.38072222190108
NAYIF-1 (EO-88)         
1 42017U 17008BX  20174.13770935  .00000973  00000-0  40043-4 0  9993
2 42017  97.3595 241.6317 0004853 317.4760  42.6102 15.26512232186263
MAX VALIER SAT          
1 42778U 17036P   20174.13973649  .00000600  00000-0  28720-4 0  9990
2 42778  97.3043 227.6461 0012443  14.5493 345.6099 15.22630179166447
RADFXSAT (FOX-1B)       
1 43017U 17073E   20174.19335257  .00000560  00000-0  48518-4 0  9993
2 43017  97.7231  86.2458 0257974  35.2061 326.5892 14.78944382139862
FOX-1D (AO-92)          
1 43137U 18004AC  20174.47378409  .00000668  00000-0  30383-4 0  9998
2 43137  97.4455 245.6008 0010279  46.1310 314.0774 15.24133992135805
DIWATA-2B               
1 43678U 18084H   20174.37122831  .00000432  00000-0  48708-4 0  9990
2 43678  97.8848 292.7738 0010444 153.5594 206.6154 14.91638308 89753
ES'HAIL 2               
1 43700U 18090A   20174.32618712  .00000153  00000-0  00000+0 0  9994
2 43700   0.0103 338.0475 0000966 129.8441 306.2843  1.00270486  6000
FOX-1CLIFF (AO-95)      
1 43770U 18099N   20174.12684301  .00000095  00000-0  13920-4 0  9990
2 43770  97.7054 245.4263 0014745 175.8516 184.2829 14.94991594 84613
ITASAT 1                
1 43786U 18099AE  20174.12270626 -.00000118  00000-0 -54724-5 0  9994
2 43786  97.7069 245.8450 0015495 169.9600 190.1934 14.95330665 84631
JY1SAT (JO-97)          
1 43803U 18099AX  20174.13669813  .00000442  00000-0  44973-4 0  9997
2 43803  97.7030 245.6764 0015553 170.0102 190.1431 14.95507581 84635
PSAT2 (NO-104)          
1 44354U 19036R   20173.83750147  .00005390  00000-0  75487-4 0  9999
2 44354  28.5322 351.8082 0364171 357.8984   2.0081 15.03504548 54484
BRICSAT2 (NO-103)       
1 44355U 19036S   20173.83006391  .00010385  00000-0  14270-3 0  9997
2 44355  28.5316 342.9549 0343021  12.3033 348.5695 15.08875419 54578
JAISAT-1                
1 44419U 19038F   20173.98704508  .00000529  00000-0  33736-4 0  9999
2 44419  97.5389 135.5293 0023147 113.1541 247.2132 15.12787272 53287
DUCHIFAT-3              
1 44854U 19089C   20174.09043990  .00000182  00000-0  21157-4 0  9991
2 44854  36.9673  70.9476 0006910  97.5902 262.5629 14.99071484 28999
RS-44 & BREEZE-KM R/B   
1 44909U 19096E   20174.04927119  .00000005  00000-0 -21173-4 0  9992
2 44909  82.5211 352.2595 0216759 215.5363 143.1140 12.79707999 22775
ORBITAL FACTORY 2 (OF-2)
1 45113U 19071C   20173.91595174  .00000950  00000-0  40590-4 0  9992
2 45113  51.6451 341.9916 0013588  74.9184 285.3301 15.33369473 21817
HUSKYSAT-1              
1 45119U 19071J   20173.89372345  .00000903  00000-0  38915-4 0  9994
2 45119  51.6450 341.8437 0012865  71.3974 288.8404 15.33584674 21807
